CCSDS_OMM_VERS = 2.0
CREATION_DATE  = 
ORIGINATOR     = 

OBJECT_NAME    = FENGYUN 4C
OBJECT_ID      = 2025-312A
CENTER_NAME    = EARTH
REF_FRAME      = TEME
TIME_SYSTEM    = UTC
MEAN_ELEMENT_THEORY = SGP/SGP4

EPOCH          = 2026-01-25T16:04:33.331872
MEAN_MOTION    = 1.00273720
ECCENTRICITY   = .0001853
INCLINATION    = 0.0521
RA_OF_ASC_NODE = 244.7304
ARG_OF_PERICENTER = 45.7576
MEAN_ANOMALY   = 208.5791

EPHEMERIS_TYPE = 0
CLASSIFICATION_TYPE = U
NORAD_CAT_ID   = 67246
ELEMENT_SET_NO = 999
REV_AT_EPOCH   = 35
BSTAR          = 0
MEAN_MOTION_DOT = -.309E-5
MEAN_MOTION_DDOT = 0

CCSDS_OMM_VERS = 2.0
CREATION_DATE  = 
ORIGINATOR     = 

OBJECT_NAME    = CZ-3B R/B
OBJECT_ID      = 2025-312B
CENTER_NAME    = EARTH
REF_FRAME      = TEME
TIME_SYSTEM    = UTC
MEAN_ELEMENT_THEORY = SGP/SGP4

EPOCH          = 2026-01-23T11:02:25.794528
MEAN_MOTION    = 2.48195757
ECCENTRICITY   = .71757143
INCLINATION    = 28.3831
RA_OF_ASC_NODE = 323.1514
ARG_OF_PERICENTER = 197.1563
MEAN_ANOMALY   = 112.5228

EPHEMERIS_TYPE = 0
CLASSIFICATION_TYPE = U
NORAD_CAT_ID   = 67247
ELEMENT_SET_NO = 999
REV_AT_EPOCH   = 67
BSTAR          = .6658537E-3
MEAN_MOTION_DOT = .291215E-2
MEAN_MOTION_DDOT = .729511E-6

CCSDS_OMM_VERS = 2.0
CREATION_DATE  = 
ORIGINATOR     = 

OBJECT_NAME    = 2025-313A
OBJECT_ID      = 2025-313A
CENTER_NAME    = EARTH
REF_FRAME      = TEME
TIME_SYSTEM    = UTC
MEAN_ELEMENT_THEORY = SGP/SGP4

EPOCH          = 2026-01-25T15:29:50.786880
MEAN_MOTION    = 14.66845258
ECCENTRICITY   = .02804399
INCLINATION    = 97.5610
RA_OF_ASC_NODE = 101.0150
ARG_OF_PERICENTER = 74.7582
MEAN_ANOMALY   = 288.4443

EPHEMERIS_TYPE = 0
CLASSIFICATION_TYPE = U
NORAD_CAT_ID   = 67248
ELEMENT_SET_NO = 999
REV_AT_EPOCH   = 412
BSTAR          = .22383742E-3
MEAN_MOTION_DOT = .2209E-4
MEAN_MOTION_DDOT = 0

CCSDS_OMM_VERS = 2.0
CREATION_DATE  = 
ORIGINATOR     = 

OBJECT_NAME    = 2025-313B
OBJECT_ID      = 2025-313B
CENTER_NAME    = EARTH
REF_FRAME      = TEME
TIME_SYSTEM    = UTC
MEAN_ELEMENT_THEORY = SGP/SGP4

EPOCH          = 2026-01-25T14:14:01.618656
MEAN_MOTION    = 14.73304765
ECCENTRICITY   = .02974869
INCLINATION    = 97.5297
RA_OF_ASC_NODE = 101.1128
ARG_OF_PERICENTER = 78.7402
MEAN_ANOMALY   = 284.7082

EPHEMERIS_TYPE = 0
CLASSIFICATION_TYPE = U
NORAD_CAT_ID   = 67249
ELEMENT_SET_NO = 999
REV_AT_EPOCH   = 413
BSTAR          = .36583661E-3
MEAN_MOTION_DOT = .4781E-4
MEAN_MOTION_DDOT = 0

CCSDS_OMM_VERS = 2.0
CREATION_DATE  = 
ORIGINATOR     = 

OBJECT_NAME    = 2025-313C
OBJECT_ID      = 2025-313C
CENTER_NAME    = EARTH
REF_FRAME      = TEME
TIME_SYSTEM    = UTC
MEAN_ELEMENT_THEORY = SGP/SGP4

EPOCH          = 2026-01-25T15:33:39.358944
MEAN_MOTION    = 14.85161139
ECCENTRICITY   = .0161711
INCLINATION    = 97.6335
RA_OF_ASC_NODE = 102.0059
ARG_OF_PERICENTER = 88.0375
MEAN_ANOMALY   = 273.9351

EPHEMERIS_TYPE = 0
CLASSIFICATION_TYPE = U
NORAD_CAT_ID   = 67250
ELEMENT_SET_NO = 999
REV_AT_EPOCH   = 417
BSTAR          = .18571539E-2
MEAN_MOTION_DOT = .20118E-3
MEAN_MOTION_DDOT = 0

CCSDS_OMM_VERS = 2.0
CREATION_DATE  = 
ORIGINATOR     = 

OBJECT_NAME    = 2025-313D
OBJECT_ID      = 2025-313D
CENTER_NAME    = EARTH
REF_FRAME      = TEME
TIME_SYSTEM    = UTC
MEAN_ELEMENT_THEORY = SGP/SGP4

EPOCH          = 2026-01-25T15:17:44.673504
MEAN_MOTION    = 14.88838409
ECCENTRICITY   = .01523177
INCLINATION    = 97.5854
RA_OF_ASC_NODE = 101.9808
ARG_OF_PERICENTER = 80.6510
MEAN_ANOMALY   = 281.1894

EPHEMERIS_TYPE = 0
CLASSIFICATION_TYPE = U
NORAD_CAT_ID   = 67251
ELEMENT_SET_NO = 999
REV_AT_EPOCH   = 418
BSTAR          = .36790042E-3
MEAN_MOTION_DOT = .4224E-4
MEAN_MOTION_DDOT = 0

CCSDS_OMM_VERS = 2.0
CREATION_DATE  = 
ORIGINATOR     = 

OBJECT_NAME    = ZORKIY-2M-VPE
OBJECT_ID      = 2025-313E
CENTER_NAME    = EARTH
REF_FRAME      = TEME
TIME_SYSTEM    = UTC
MEAN_ELEMENT_THEORY = SGP/SGP4

EPOCH          = 2026-01-25T15:01:35.014080
MEAN_MOTION    = 15.21899295
ECCENTRICITY   = .00116294
INCLINATION    = 97.4089
RA_OF_ASC_NODE = 102.6645
ARG_OF_PERICENTER = 122.7279
MEAN_ANOMALY   = 237.5080

EPHEMERIS_TYPE = 0
CLASSIFICATION_TYPE = U
NORAD_CAT_ID   = 67252
ELEMENT_SET_NO = 999
REV_AT_EPOCH   = 427
BSTAR          = .58296541E-3
MEAN_MOTION_DOT = .13238E-3
MEAN_MOTION_DDOT = 0

CCSDS_OMM_VERS = 2.0
CREATION_DATE  = 
ORIGINATOR     = 

OBJECT_NAME    = AIST-2T 1
OBJECT_ID      = 2025-313F
CENTER_NAME    = EARTH
REF_FRAME      = TEME
TIME_SYSTEM    = UTC
MEAN_ELEMENT_THEORY = SGP/SGP4

EPOCH          = 2026-01-25T13:22:49.323648
MEAN_MOTION    = 15.66555453
ECCENTRICITY   = .00104934
INCLINATION    = 97.1006
RA_OF_ASC_NODE = 102.9805
ARG_OF_PERICENTER = 138.4099
MEAN_ANOMALY   = 221.7962

EPHEMERIS_TYPE = 0
CLASSIFICATION_TYPE = U
NORAD_CAT_ID   = 67253
ELEMENT_SET_NO = 999
REV_AT_EPOCH   = 436
BSTAR          = .75164525E-3
MEAN_MOTION_DOT = .79109E-3
MEAN_MOTION_DDOT = 0

CCSDS_OMM_VERS = 2.0
CREATION_DATE  = 
ORIGINATOR     = 

OBJECT_NAME    = AIST-2T 2
OBJECT_ID      = 2025-313G
CENTER_NAME    = EARTH
REF_FRAME      = TEME
TIME_SYSTEM    = UTC
MEAN_ELEMENT_THEORY = SGP/SGP4

EPOCH          = 2026-01-24T19:07:47.694720
MEAN_MOTION    = 15.64301511
ECCENTRICITY   = .00073943
INCLINATION    = 97.0997
RA_OF_ASC_NODE = 102.2007
ARG_OF_PERICENTER = 178.9608
MEAN_ANOMALY   = 181.1669

EPHEMERIS_TYPE = 0
CLASSIFICATION_TYPE = U
NORAD_CAT_ID   = 67254
ELEMENT_SET_NO = 999
REV_AT_EPOCH   = 423
BSTAR          = .38171294E-3
MEAN_MOTION_DOT = .36441E-3
MEAN_MOTION_DDOT = 0

CCSDS_OMM_VERS = 2.0
CREATION_DATE  = 
ORIGINATOR     = 

OBJECT_NAME    = 2025-313H
OBJECT_ID      = 2025-313H
CENTER_NAME    = EARTH
REF_FRAME      = TEME
TIME_SYSTEM    = UTC
MEAN_ELEMENT_THEORY = SGP/SGP4

EPOCH          = 2026-01-25T14:05:50.119296
MEAN_MOTION    = 15.02251054
ECCENTRICITY   = .00914498
INCLINATION    = 97.3061
RA_OF_ASC_NODE = 101.4647
ARG_OF_PERICENTER = 100.6313
MEAN_ANOMALY   = 260.5228

EPHEMERIS_TYPE = 0
CLASSIFICATION_TYPE = U
NORAD_CAT_ID   = 67255
ELEMENT_SET_NO = 999
REV_AT_EPOCH   = 421
BSTAR          = .28150564E-3
MEAN_MOTION_DOT = .4005E-4
MEAN_MOTION_DDOT = 0

CCSDS_OMM_VERS = 2.0
CREATION_DATE  = 
ORIGINATOR     = 

OBJECT_NAME    = SITRO-AIS-57
OBJECT_ID      = 2025-313J
CENTER_NAME    = EARTH
REF_FRAME      = TEME
TIME_SYSTEM    = UTC
MEAN_ELEMENT_THEORY = SGP/SGP4

EPOCH          = 2026-01-25T14:13:35.656320
MEAN_MOTION    = 15.20201873
ECCENTRICITY   = .00175786
INCLINATION    = 97.4080
RA_OF_ASC_NODE = 102.5511
ARG_OF_PERICENTER = 139.6122
MEAN_ANOMALY   = 220.6422

EPHEMERIS_TYPE = 0
CLASSIFICATION_TYPE = U
NORAD_CAT_ID   = 67256
ELEMENT_SET_NO = 999
REV_AT_EPOCH   = 426
BSTAR          = .74422495E-3
MEAN_MOTION_DOT = .16143E-3
MEAN_MOTION_DDOT = 0

CCSDS_OMM_VERS = 2.0
CREATION_DATE  = 
ORIGINATOR     = 

OBJECT_NAME    = SITRO-AIS-59
OBJECT_ID      = 2025-313K
CENTER_NAME    = EARTH
REF_FRAME      = TEME
TIME_SYSTEM    = UTC
MEAN_ELEMENT_THEORY = SGP/SGP4

EPOCH          = 2026-01-25T11:03:15.007968
MEAN_MOTION    = 15.20207150
ECCENTRICITY   = .00173265
INCLINATION    = 97.4087
RA_OF_ASC_NODE = 102.4246
ARG_OF_PERICENTER = 142.1059
MEAN_ANOMALY   = 218.1399

EPHEMERIS_TYPE = 0
CLASSIFICATION_TYPE = U
NORAD_CAT_ID   = 67257
ELEMENT_SET_NO = 999
REV_AT_EPOCH   = 424
BSTAR          = .75440953E-3
MEAN_MOTION_DOT = .16366E-3
MEAN_MOTION_DDOT = 0

