FENGYUN 4C              
1 67246U 25312A   26025.66983023 -.00000309  00000+0  00000+0 0  9991
2 67246   0.0521 244.7304 0001853  45.7576 208.5791  1.00273720   352
CZ-3B R/B               
1 67247U 25312B   26023.46002077  .00291215  72951-6  66585-3 0  9991
2 67247  28.3831 323.1514 7175714 197.1563 112.5228  2.48195757   678
2025-313A               
1 67248U 25313A   26025.64572670  .00002209  00000+0  22384-3 0  9997
2 67248  97.5610 101.0150 0280439  74.7582 288.4443 14.66845258  4123
2025-313B               
1 67249U 25313B   26025.59307429  .00004781  00000+0  36584-3 0  9994
2 67249  97.5297 101.1128 0297486  78.7402 284.7082 14.73304765  4136
2025-313C               
1 67250U 25313C   26025.64837221  .00020118  00000+0  18572-2 0  9998
2 67250  97.6335 102.0059 0161711  88.0375 273.9351 14.85161139  4171
2025-313D               
1 67251U 25313D   26025.63732261  .00004224  00000+0  36790-3 0  9999
2 67251  97.5854 101.9808 0152317  80.6510 281.1894 14.88838409  4186
ZORKIY-2M-VPE           
1 67252U 25313E   26025.62609970  .00013238  00000+0  58297-3 0  9990
2 67252  97.4089 102.6645 0011629 122.7279 237.5080 15.21899295  4273
AIST-2T 1               
1 67253U 25313F   26025.55751532  .00079109  00000+0  75165-3 0  9997
2 67253  97.1006 102.9805 0010493 138.4099 221.7962 15.66555453  4361
AIST-2T 2               
1 67254U 25313G   26024.79707980  .00036441  00000+0  38171-3 0  9999
2 67254  97.0997 102.2007 0007394 178.9608 181.1669 15.64301511  4239
2025-313H               
1 67255U 25313H   26025.58738564  .00004005  00000+0  28151-3 0  9998
2 67255  97.3061 101.4647 0091449 100.6313 260.5228 15.02251054  4214
SITRO-AIS-57            
1 67256U 25313J   26025.59277380  .00016143  00000+0  74422-3 0  9992
2 67256  97.4080 102.5511 0017578 139.6122 220.6422 15.20201873  4262
SITRO-AIS-59            
1 67257U 25313K   26025.46059037  .00016366  00000+0  75441-3 0  9995
2 67257  97.4087 102.4246 0017326 142.1059 218.1399 15.20207150  4240
